OBJECT_NAME,OBJECT_ID,EPOCH,MEAN_MOTION,ECCENTRICITY,INCLINATION,RA_OF_ASC_NODE,ARG_OF_PERICENTER,MEAN_ANOMALY,EPHEMERIS_TYPE,CLASSIFICATION_TYPE,NORAD_CAT_ID,ELEMENT_SET_NO,REV_AT_EPOCH,BSTAR,MEAN_MOTION_DOT,MEAN_MOTION_DDOT
STARLINK-30446,2023-144J,2026-07-12T06:05:24.006048,15.27570091,.0001218,43.0033,287.6098,271.7764,88.2948,0,U,57872,999,15658,.10374E-3,.2593E-4,0
STARLINK-30445,2023-144K,2026-07-12T08:43:19.494912,15.27579764,.00018031,43.0044,301.2072,283.1174,76.9477,0,U,57873,999,15666,.29660445E-4,.554E-5,0
STARLINK-30447,2023-144L,2026-07-12T06:07:10.551936,15.27580186,.0000988,43.0000,275.9766,241.9939,118.0812,0,U,57874,999,15698,-.17671E-4,-.748E-5,0
STARLINK-30434,2023-144M,2026-07-11T07:53:28.439232,15.27584602,.00034463,43.0065,307.1991,282.4602,77.5864,0,U,57875,999,15655,-.14415924E-3,-.4229E-4,0
STARLINK-30429,2023-144N,2026-07-12T07:31:22.954368,15.27571995,.00013488,43.0020,301.6869,263.7177,96.3521,0,U,57876,999,15669,-.15587819E-4,-.691E-5,0
STARLINK-30284,2023-144P,2026-07-12T06:47:55.550112,15.27574049,.0001838,43.0020,264.9243,281.0105,79.0540,0,U,57877,999,15711,-.15309E-4,-.684E-5,0
STARLINK-30433,2023-144Q,2026-07-11T14:39:29.581056,15.27590708,.00017594,43.0048,305.0156,276.1628,83.9023,0,U,57878,999,15659,-.85449989E-4,-.2614E-4,0
STARLINK-30358,2023-144R,2026-07-12T08:00:46.881216,15.27568895,.00013094,43.0028,300.9791,263.4278,96.6424,0,U,57879,999,15670,.84615138E-4,.2066E-4,0
STARLINK-30436,2023-144S,2026-07-12T08:10:01.187328,15.27574369,.00013359,43.0036,301.0252,263.2931,96.7769,0,U,57880,999,15670,.12230165E-3,.3104E-4,0
STARLINK-30339,2023-144U,2026-07-12T07:44:19.630752,15.27571067,.00015931,43.0042,301.7508,285.0790,74.9885,0,U,57882,999,15669,.39287493E-4,.819E-5,0
STARLINK-30282,2023-144V,2026-07-12T07:51:31.084704,15.27578356,.00014565,43.0011,300.9314,271.8331,88.2354,0,U,57883,999,15670,-.16466152E-4,-.715E-5,0
STARLINK-30340,2023-144W,2026-07-12T08:02:37.493952,15.27569320,.0003254,43.0044,300.9807,295.2080,64.8434,0,U,57884,999,15670,-.57927793E-4,-.1856E-4,0
STARLINK-30279,2023-144X,2026-07-12T07:57:04.184352,15.27576270,.00018981,43.0016,300.9603,282.5253,77.5386,0,U,57885,999,15664,.80704981E-4,.1959E-4,0
STARLINK-30465,2023-146A,2026-07-12T10:08:29.280768,15.27565507,.00012638,43.0040,329.6865,221.3453,138.7303,0,U,57891,999,15613,.94590208E-4,.2341E-4,0
STARLINK-30470,2023-146B,2026-07-12T09:48:08.826336,15.27578518,.00005762,43.0037,329.5826,201.3339,158.7489,0,U,57892,999,15613,-.1266395E-4,-.61E-5,0
STARLINK-30473,2023-146C,2026-07-11T09:29:44.791584,15.27575587,.00008491,43.0036,335.6746,257.5174,102.5583,0,U,57893,999,15597,.22670617E-4,.362E-5,0
STARLINK-30443,2023-146D,2026-07-12T10:10:20.891424,15.27574137,.00013719,43.0012,329.6893,201.9608,158.1186,0,U,57894,999,15613,.89552449E-4,.2202E-4,0
STARLINK-30467,2023-146E,2026-07-11T21:20:27.846816,15.27568710,.0000487,42.9994,332.5605,183.8162,176.2686,0,U,57895,999,15604,-.18411E-4,-.768E-5,0
STARLINK-30469,2023-146F,2026-07-12T10:15:54.124992,15.27576694,.00023629,42.9983,329.7162,149.3332,210.7658,0,U,57896,999,15613,.57960145E-4,.1333E-4,0
STARLINK-30474,2023-146G,2026-07-12T10:19:35.852448,15.27582462,.00016946,43.0044,329.7456,275.0540,85.0118,0,U,57897,999,15613,.1172496E-5,-.23E-5,0
STARLINK-30479,2023-146H,2026-07-12T10:25:10.487424,15.27560758,.00037243,43.0115,329.7776,298.1193,61.9282,0,U,57898,999,15613,-.70514875E-4,-.2202E-4,0
STARLINK-30481,2023-146J,2026-07-12T10:30:42.255648,15.27579902,.00021912,43.0056,329.8006,263.8227,96.2375,0,U,57899,999,15613,.78515977E-4,.1899E-4,0
STARLINK-30457,2023-146K,2026-07-12T09:22:27.207552,15.27574403,.00019848,43.0031,330.2938,275.1858,84.8767,0,U,57900,999,15506,-.38281031E-4,-.1315E-4,0
STARLINK-30472,2023-146L,2026-07-12T10:01:48.802944,15.27572979,.00012658,43.0037,326.2362,270.3066,89.7640,0,U,57901,999,15511,-.4316966E-5,-.381E-5,0
STARLINK-30462,2023-146M,2026-07-12T09:07:39.200448,15.27577368,.00010304,43.0036,330.2235,254.0654,106.0085,0,U,57902,999,15608,-.8389202E-5,-.493E-5,0
STARLINK-30449,2023-146N,2026-07-12T10:01:04.089216,15.27590005,.00014768,43.0036,329.6402,267.5992,92.4691,0,U,57903,999,15507,.14302664E-3,.3677E-4,0
STARLINK-30466,2023-146P,2026-07-12T10:47:21.728256,15.27574548,.00015089,43.0010,329.8830,257.4076,102.6607,0,U,57904,999,15507,-.2101086E-5,-.32E-5,0
STARLINK-30428,2023-146R,2026-07-11T17:35:20.095008,15.27580458,.00019719,43.0049,333.9605,274.5631,85.4995,0,U,57906,999,15496,.38252482E-4,.79E-5,0
STARLINK-30482,2023-146S,2026-07-12T09:33:32.954112,15.27579533,.00008853,42.9988,330.3526,188.8935,171.1901,0,U,57907,999,15507,-.8896418E-5,-.507E-5,0
STARLINK-30464,2023-146T,2026-07-12T11:03:17.606880,15.27581579,.00019365,43.0047,333.3584,273.8650,86.1981,0,U,57908,999,15503,.7263293E-5,-.63E-6,0
