STARLINK-30446          
1 57872U 23144J   26193.25375007  .00002593  00000+0  10374-3 0  9999
2 57872  43.0033 287.6098 0001218 271.7764  88.2948 15.27570091156581
STARLINK-30445          
1 57873U 23144K   26193.36342008  .00000554  00000+0  29660-4 0  9991
2 57873  43.0044 301.2072 0001803 283.1174  76.9477 15.27579764156667
STARLINK-30447          
1 57874U 23144L   26193.25498324 -.00000748  00000+0 -17671-4 0  9999
2 57874  43.0000 275.9766 0000988 241.9939 118.0812 15.27580186156987
STARLINK-30434          
1 57875U 23144M   26192.32880138 -.00004229  00000+0 -14416-3 0  9996
2 57875  43.0065 307.1991 0003446 282.4602  77.5864 15.27584602156552
STARLINK-30429          
1 57876U 23144N   26193.31346012 -.00000691  00000+0 -15588-4 0  9996
2 57876  43.0020 301.6869 0001348 263.7177  96.3521 15.27571995156690
STARLINK-30284          
1 57877U 23144P   26193.28328183 -.00000684  00000+0 -15309-4 0  9995
2 57877  43.0020 264.9243 0001838 281.0105  79.0540 15.27574049157116
STARLINK-30433          
1 57878U 23144Q   26192.61075904 -.00002614  00000+0 -85450-4 0  9991
2 57878  43.0048 305.0156 0001759 276.1628  83.9023 15.27590708156595
STARLINK-30358          
1 57879U 23144R   26193.33387594  .00002066  00000+0  84615-4 0  9994
2 57879  43.0028 300.9791 0001309 263.4278  96.6424 15.27568895156705
STARLINK-30436          
1 57880U 23144S   26193.34029152  .00003104  00000+0  12230-3 0  9997
2 57880  43.0036 301.0252 0001335 263.2931  96.7769 15.27574369156709
STARLINK-30339          
1 57882U 23144U   26193.32244943  .00000819  00000+0  39287-4 0  9996
2 57882  43.0042 301.7508 0001593 285.0790  74.9885 15.27571067156697
STARLINK-30282          
1 57883U 23144V   26193.32744311 -.00000715  00000+0 -16466-4 0  9992
2 57883  43.0011 300.9314 0001456 271.8331  88.2354 15.27578356156701
STARLINK-30340          
1 57884U 23144W   26193.33515618 -.00001856  00000+0 -57928-4 0  9995
2 57884  43.0044 300.9807 0003254 295.2080  64.8434 15.27569320156704
STARLINK-30279          
1 57885U 23144X   26193.33129843  .00001959  00000+0  80705-4 0  9998
2 57885  43.0016 300.9603 0001898 282.5253  77.5386 15.27576270156643
STARLINK-30465          
1 57891U 23146A   26193.42256112  .00002341  00000+0  94590-4 0  9990
2 57891  43.0040 329.6865 0001263 221.3453 138.7303 15.27565507156138
STARLINK-30470          
1 57892U 23146B   26193.40843549 -.00000610  00000+0 -12664-4 0  9996
2 57892  43.0037 329.5826 0000576 201.3339 158.7489 15.27578518156131
STARLINK-30473          
1 57893U 23146C   26192.39565731  .00000362  00000+0  22671-4 0  9999
2 57893  43.0036 335.6746 0000849 257.5174 102.5583 15.27575587155979
STARLINK-30443          
1 57894U 23146D   26193.42385291  .00002202  00000+0  89552-4 0  9992
2 57894  43.0012 329.6893 0001371 201.9608 158.1186 15.27574137156131
STARLINK-30467          
1 57895U 23146E   26192.88921119 -.00000768  00000+0 -18411-4 0  9990
2 57895  42.9994 332.5605 0000487 183.8162 176.2686 15.27568710156049
STARLINK-30469          
1 57896U 23146F   26193.42770978  .00001333  00000+0  57960-4 0  9996
2 57896  42.9983 329.7162 0002362 149.3332 210.7658 15.27576694156137
STARLINK-30474          
1 57897U 23146G   26193.43027607 -.00000230  00000+0  11725-5 0  9998
2 57897  43.0044 329.7456 0001694 275.0540  85.0118 15.27582462156133
STARLINK-30479          
1 57898U 23146H   26193.43414916 -.00002202  00000+0 -70515-4 0  9995
2 57898  43.0115 329.7776 0003724 298.1193  61.9282 15.27560758156133
STARLINK-30481          
1 57899U 23146J   26193.43798907  .00001899  00000+0  78516-4 0  9999
2 57899  43.0056 329.8006 0002191 263.8227  96.2375 15.27579902156134
STARLINK-30457          
1 57900U 23146K   26193.39059268 -.00001315  00000+0 -38281-4 0  9997
2 57900  43.0031 330.2938 0001984 275.1858  84.8767 15.27574403155065
STARLINK-30472          
1 57901U 23146L   26193.41792596 -.00000381  00000+0 -43170-5 0  9995
2 57901  43.0037 326.2362 0001265 270.3066  89.7640 15.27572979155114
STARLINK-30462          
1 57902U 23146M   26193.38031482 -.00000493  00000+0 -83892-5 0  9991
2 57902  43.0036 330.2235 0001030 254.0654 106.0085 15.27577368156080
STARLINK-30449          
1 57903U 23146N   26193.41740844  .00003677  00000+0  14303-3 0  9999
2 57903  43.0036 329.6402 0001476 267.5992  92.4691 15.27590005155079
STARLINK-30466          
1 57904U 23146P   26193.44955704 -.00000320  00000+0 -21011-5 0  9996
2 57904  43.0010 329.8830 0001508 257.4076 102.6607 15.27574548155071
STARLINK-30428          
1 57906U 23146R   26192.73287147  .00000790  00000+0  38252-4 0  9991
2 57906  43.0049 333.9605 0001971 274.5631  85.4995 15.27580458154964
STARLINK-30482          
1 57907U 23146S   26193.39829808 -.00000507  00000+0 -88964-5 0  9995
2 57907  42.9988 330.3526 0000885 188.8935 171.1901 15.27579533155070
STARLINK-30464          
1 57908U 23146T   26193.46062045 -.00000063  00000+0  72633-5 0  9998
2 57908  43.0047 333.3584 0001936 273.8650  86.1981 15.27581579155035
